{"type": "FeatureCollection", "features": [ {"type": "Feature", "properties": {"norad_id": 30332, "name": "FENGYUN 1C DEB", "group": "fengyun-1c-debris", "lat": -77.02975724035834, "lon": 2.7010566857066958, "alt_km": 1110.0730513166582, "timestamp": "2025-12-09T04:51:47.768880+00:00", "meta": {"OBJECT_NAME": "FENGYUN 1C DEB", "OBJECT_ID": "1999-025AAT", "EPOCH": "2025-12-08T20:50:16.474272", "MEAN_MOTION": 13.76704789, "ECCENTRICITY": 0.0178024, "INCLINATION": 99.7145, "RA_OF_ASC_NODE": 314.309, "ARG_OF_PERICENTER": 113.0024, "MEAN_ANOMALY": 308.749, "EPHEMERIS_TYPE": 0, "CLASSIFICATION_TYPE": "U", "NORAD_CAT_ID": 30332, "ELEMENT_SET_NO": 999, "REV_AT_EPOCH": 94662, "BSTAR": 0.00061944, "MEAN_MOTION_DOT": 6.38e-06, "MEAN_MOTION_DDOT": 0}, "tle": {"line1": "1 30332U 99025AAT 25342.86824623  .00000638  00000+0  61944-3 0  9994", "line2": "2 30332  99.7145 314.3090 0178024 113.0024 308.7490 13.76704789946621"}}, "geometry": {"type": "Point", "coordinates": [2.7010566857066958, -77.02975724035834]}}, {"type": "Feature", "properties": {"norad_id": 30334, "name": "FENGYUN 1C DEB", "group": "fengyun-1c-debris", "lat": 29.58643473965039, "lon": 77.69945644261622, "alt_km": 835.4532364070801, "timestamp": "2025-12-09T04:51:47.768890+00:00", "meta": {"OBJECT_NAME": "FENGYUN 1C DEB", "OBJECT_ID": "1999-025AAV", "EPOCH": "2025-12-07T20:32:10.199904", "MEAN_MOTION": 13.92353676, "ECCENTRICITY": 0.01446801, "INCLINATION": 99.0216, "RA_OF_ASC_NODE": 81.563, "ARG_OF_PERICENTER": 355.3694, "MEAN_ANOMALY": 125.7435, "EPHEMERIS_TYPE": 0, "CLASSIFICATION_TYPE": "U", "NORAD_CAT_ID": 30334, "ELEMENT_SET_NO": 999, "REV_AT_EPOCH": 95153, "BSTAR": 0.0018026917, "MEAN_MOTION_DOT": 2.48e-05, "MEAN_MOTION_DDOT": 0}, "tle": {"line1": "1 30334U 99025AAV 25341.85567361  .00002480  00000+0  18027-2 0  9997", "line2": "2 30334  99.0216  81.5630 0144680 355.3694 125.7435 13.92353676951538"}}, "geometry": {"type": "Point", "coordinates": [77.69945644261622, 29.58643473965039]}}, {"type": "Feature", "properties": {"norad_id": 30335, "name": "FENGYUN 1C DEB", "group": "fengyun-1c-debris", "lat": 54.74814323831569, "lon": 167.4010846155365, "alt_km": 791.6675885248169, "timestamp": "2025-12-09T04:51:47.768899+00:00", "meta": {"OBJECT_NAME": "FENGYUN 1C DEB", "OBJECT_ID": "1999-025AAW", "EPOCH": "2025-12-08T13:23:57.893280", "MEAN_MOTION": 14.01359342, "ECCENTRICITY": 0.0132588, "INCLINATION": 98.9051, "RA_OF_ASC_NODE": 333.9558, "ARG_OF_PERICENTER": 143.1672, "MEAN_ANOMALY": 332.6928, "EPHEMERIS_TYPE": 0, "CLASSIFICATION_TYPE": "U", "NORAD_CAT_ID": 30335, "ELEMENT_SET_NO": 999, "REV_AT_EPOCH": 96532, "BSTAR": 0.00019312, "MEAN_MOTION_DOT": 2.72e-06, "MEAN_MOTION_DDOT": 0}, "tle": {"line1": "1 30335U 99025AAW 25342.55830895  .00000272  00000+0  19312-3 0  9997", "line2": "2 30335  98.9051 333.9558 0132588 143.1672 332.6928 14.01359342965325"}}, "geometry": {"type": "Point", "coordinates": [167.4010846155365, 54.74814323831569]}}, {"type": "Feature", "properties": {"norad_id": 30336, "name": "FENGYUN 1C DEB", "group": "fengyun-1c-debris", "lat": 75.43043451762988, "lon": -140.13179944682662, "alt_km": 816.5515784204827, "timestamp": "2025-12-09T04:51:47.768909+00:00", "meta": {"OBJECT_NAME": "FENGYUN 1C DEB", "OBJECT_ID": "1999-025AAX", "EPOCH": "2025-12-08T15:26:22.338240", "MEAN_MOTION": 14.19297241, "ECCENTRICITY": 0.004376, "INCLINATION": 98.6009, "RA_OF_ASC_NODE": 3.7126, "ARG_OF_PERICENTER": 20.4155, "MEAN_ANOMALY": 104.6394, "EPHEMERIS_TYPE": 0, "CLASSIFICATION_TYPE": "U", "NORAD_CAT_ID": 30336, "ELEMENT_SET_NO": 999, "REV_AT_EPOCH": 97544, "BSTAR": 0.00061778, "MEAN_MOTION_DOT": 1.266e-05, "MEAN_MOTION_DDOT": 0}, "tle": {"line1": "1 30336U 99025AAX 25342.64331410  .00001266  00000+0  61778-3 0  9994", "line2": "2 30336  98.6009   3.7126 0043760  20.4155 104.6394 14.19297241975441"}}, "geometry": {"type": "Point", "coordinates": [-140.13179944682662, 75.43043451762988]}}, {"type": "Feature", "properties": {"norad_id": 30338, "name": "FENGYUN 1C DEB", "group": "fengyun-1c-debris", "lat": 56.61692093120781, "lon": -114.04184160822038, "alt_km": 697.3482586222317, "timestamp": "2025-12-09T04:51:47.768919+00:00", "meta": {"OBJECT_NAME": "FENGYUN 1C DEB", "OBJECT_ID": "1999-025AAZ", "EPOCH": "2025-12-08T18:54:23.008320", "MEAN_MOTION": 14.47445567, "ECCENTRICITY": 0.0272013, "INCLINATION": 98.4581, "RA_OF_ASC_NODE": 52.4922, "ARG_OF_PERICENTER": 205.8804, "MEAN_ANOMALY": 279.002, "EPHEMERIS_TYPE": 0, "CLASSIFICATION_TYPE": "U", "NORAD_CAT_ID": 30338, "ELEMENT_SET_NO": 999, "REV_AT_EPOCH": 98087, "BSTAR": 0.0017665, "MEAN_MOTION_DOT": 0.00010301, "MEAN_MOTION_DDOT": 0}, "tle": {"line1": "1 30338U 99025AAZ 25342.78776630  .00010301  00000+0  17665-2 0  9993", "line2": "2 30338  98.4581  52.4922 0272013 205.8804 279.0020 14.47445567980879"}}, "geometry": {"type": "Point", "coordinates": [-114.04184160822038, 56.61692093120781]}}, {"type": "Feature", "properties": {"norad_id": 30339, "name": "FENGYUN 1C DEB", "group": "fengyun-1c-debris", "lat": 69.575498741439, "lon": -65.41677356589298, "alt_km": 743.3397991234742, "timestamp": "2025-12-09T04:51:47.768929+00:00", "meta": {"OBJECT_NAME": "FENGYUN 1C DEB", "OBJECT_ID": "1999-025ABA", "EPOCH": "2025-12-08T20:33:59.348160", "MEAN_MOTION": 14.38065699, "ECCENTRICITY": 0.0021148, "INCLINATION": 98.9737, "RA_OF_ASC_NODE": 89.1136, "ARG_OF_PERICENTER": 96.7888, "MEAN_ANOMALY": 22.8598, "EPHEMERIS_TYPE": 0, "CLASSIFICATION_TYPE": "U", "NORAD_CAT_ID": 30339, "ELEMENT_SET_NO": 999, "REV_AT_EPOCH": 97371, "BSTAR": 0.0039792, "MEAN_MOTION_DOT": 0.00012056, "MEAN_MOTION_DDOT": 0}, "tle": {"line1": "1 30339U 99025ABA 25342.85693690  .00012056  00000+0  39792-2 0  9990", "line2": "2 30339  98.9737  89.1136 0021148  96.7888  22.8598 14.38065699973715"}}, "geometry": {"type": "Point", "coordinates": [-65.41677356589298, 69.575498741439]}}, {"type": "Feature", "properties": {"norad_id": 30340, "name": "FENGYUN 1C DEB", "group": "fengyun-1c-debris", "lat": 38.28245306913194, "lon": 32.771061496910136, "alt_km": 902.2189881196527, "timestamp": "2025-12-09T04:51:47.768939+00:00", "meta": {"OBJECT_NAME": "FENGYUN 1C DEB", "OBJECT_ID": "1999-025ABB", "EPOCH": "2025-12-08T15:35:58.144128", "MEAN_MOTION": 14.04594654, "ECCENTRICITY": 0.0146039, "INCLINATION": 99.0018, "RA_OF_ASC_NODE": 39.4101, "ARG_OF_PERICENTER": 146.1524, "MEAN_ANOMALY": 341.4004, "EPHEMERIS_TYPE": 0, "CLASSIFICATION_TYPE": "U", "NORAD_CAT_ID": 30340, "ELEMENT_SET_NO": 999, "REV_AT_EPOCH": 96723, "BSTAR": 6.6338e-05, "MEAN_MOTION_DOT": 7.3e-07, "MEAN_MOTION_DDOT": 0}, "tle": {"line1": "1 30340U 99025ABB 25342.64997852  .00000073  00000+0  66338-4 0  9990", "line2": "2 30340  99.0018  39.4101 0146039 146.1524 341.4004 14.04594654967238"}}, "geometry": {"type": "Point", "coordinates": [32.771061496910136, 38.28245306913194]}}, {"type": "Feature", "properties": {"norad_id": 30341, "name": "FENGYUN 1C DEB", "group": "fengyun-1c-debris", "lat": -51.670161614358726, "lon": 39.153982816010945, "alt_km": 820.0096338244584, "timestamp": "2025-12-09T04:51:47.768949+00:00", "meta": {"OBJECT_NAME": "FENGYUN 1C DEB", "OBJECT_ID": "1999-025ABC", "EPOCH": "2025-12-08T16:21:04.308768", "MEAN_MOTION": 14.33990113, "ECCENTRICITY": 0.0050149, "INCLINATION": 99.2179, "RA_OF_ASC_NODE": 230.4517, "ARG_OF_PERICENTER": 68.6355, "MEAN_ANOMALY": 353.9452, "EPHEMERIS_TYPE": 0, "CLASSIFICATION_TYPE": "U", "NORAD_CAT_ID": 30341, "ELEMENT_SET_NO": 999, "REV_AT_EPOCH": 97023, "BSTAR": 0.004049, "MEAN_MOTION_DOT": 0.00011432, "MEAN_MOTION_DDOT": 0}, "tle": {"line1": "1 30341U 99025ABC 25342.68129987  .00011432  00000+0  40490-2 0  9991", "line2": "2 30341  99.2179 230.4517 0050149  68.6355 353.9452 14.33990113970230"}}, "geometry": {"type": "Point", "coordinates": [39.153982816010945, -51.670161614358726]}}, {"type": "Feature", "properties": {"norad_id": 30342, "name": "FENGYUN 1C DEB", "group": "fengyun-1c-debris", "lat": 7.680890452930788, "lon": 161.01729629675057, "alt_km": 1032.7660903244378, "timestamp": "2025-12-09T04:51:47.768959+00:00", "meta": {"OBJECT_NAME": "FENGYUN 1C DEB", "OBJECT_ID": "1999-025ABD", "EPOCH": "2025-12-08T11:41:50.034624", "MEAN_MOTION": 13.80034712, "ECCENTRICITY": 0.01682334, "INCLINATION": 100.1956, "RA_OF_ASC_NODE": 161.6378, "ARG_OF_PERICENTER": 133.5409, "MEAN_ANOMALY": 284.3651, "EPHEMERIS_TYPE": 0, "CLASSIFICATION_TYPE": "U", "NORAD_CAT_ID": 30342, "ELEMENT_SET_NO": 999, "REV_AT_EPOCH": 94830, "BSTAR": 0.0011367849, "MEAN_MOTION_DOT": 1.264e-05, "MEAN_MOTION_DDOT": 0}, "tle": {"line1": "1 30342U 99025ABD 25342.48738466  .00001264  00000+0  11368-2 0  9992", "line2": "2 30342 100.1956 161.6378 0168233 133.5409 284.3651 13.80034712948308"}}, "geometry": {"type": "Point", "coordinates": [161.01729629675057, 7.680890452930788]}}, {"type": "Feature", "properties": {"norad_id": 30344, "name": "FENGYUN 1C DEB", "group": "fengyun-1c-debris", "lat": -80.30481528702724, "lon": 179.74730925219353, "alt_km": 731.6871211590233, "timestamp": "2025-12-09T04:51:47.768969+00:00", "meta": {"OBJECT_NAME": "FENGYUN 1C DEB", "OBJECT_ID": "1999-025ABF", "EPOCH": "2025-12-08T04:37:05.848320", "MEAN_MOTION": 14.51616836, "ECCENTRICITY": 0.00081158, "INCLINATION": 98.8198, "RA_OF_ASC_NODE": 64.0265, "ARG_OF_PERICENTER": 133.9206, "MEAN_ANOMALY": 255.8181, "EPHEMERIS_TYPE": 0, "CLASSIFICATION_TYPE": "U", "NORAD_CAT_ID": 30344, "ELEMENT_SET_NO": 999, "REV_AT_EPOCH": 98011, "BSTAR": 0.0032291036, "MEAN_MOTION_DOT": 0.00012919, "MEAN_MOTION_DDOT": 0}, "tle": {"line1": "1 30344U 99025ABF 25342.19242880  .00012919  00000+0  32291-2 0  9999", "line2": "2 30344  98.8198  64.0265 0008115 133.9206 255.8181 14.51616836980111"}}, "geometry": {"type": "Point", "coordinates": [179.74730925219353, -80.30481528702724]}}]}